start=new Date('2022-05-19T00:00:00.000Z').valueOf();
sats=[{"NORAD_CAT_ID":"47735","RCS_SIZE":"LARGE","TIME_SYSTEM":"UTC","REV_AT_EPOCH":"6854","MEAN_ELEMENT_THEORY":"SGP4","FILE":"3452599","CENTER_NAME":"EARTH","LAUNCH_DATE":"2021-03-04","APOAPSIS":"548.608","SEMIMAJOR_AXIS":"6925.408","REF_FRAME":"TEME","PERIAPSIS":"545.938","MEAN_MOTION_DOT":"0.00004100","GP_ID":"203913818","OBJECT_TYPE":"PAYLOAD","SITE":"AFETR","ELEMENT_SET_NO":"999","MEAN_MOTION":"15.06380689","MEAN_ANOMALY":"303.2210","PERIOD":"95.593","TLE_LINE1":"1 47735U 21017P   22139.04425288  .00004100  00000-0  29415-3 0  9996","COUNTRY_CODE":"US","EPHEMERIS_TYPE":"0","BSTAR":"0.00029415000000","INCLINATION":"53.0556","OBJECT_ID":"2021-017P","CLASSIFICATION_TYPE":"U","OBJECT_NAME":"STARLINK-2146","DECAY_DATE":null,"MEAN_MOTION_DDOT":"0.0000000000000","TLE_LINE2":"2 47735  53.0556 259.4660 0001928  56.8964 303.2210 15.06380689 68542","ARG_OF_PERICENTER":"56.8964","RA_OF_ASC_NODE":"259.4660","EPOCH":"2022-05-19T01:03:43.448832","ECCENTRICITY":"0.00019280"},{"CENTER_NAME":"EARTH","FILE":"3452599","MEAN_ELEMENT_THEORY":"SGP4","REV_AT_EPOCH":"6761","RCS_SIZE":"LARGE","TIME_SYSTEM":"UTC","NORAD_CAT_ID":"47736","MEAN_MOTION":"15.06399945","ELEMENT_SET_NO":"999","SITE":"AFETR","OBJECT_TYPE":"PAYLOAD","PERIAPSIS":"546.115","MEAN_MOTION_DOT":"0.00000442","GP_ID":"203913813","SEMIMAJOR_AXIS":"6925.349","REF_FRAME":"TEME","LAUNCH_DATE":"2021-03-04","APOAPSIS":"548.313","OBJECT_ID":"2021-017Q","CLASSIFICATION_TYPE":"U","INCLINATION":"53.0535","BSTAR":"0.00004855900000","EPHEMERIS_TYPE":"0","PERIOD":"95.592","TLE_LINE1":"1 47736U 21017Q   22138.87886970  .00000442  00000-0  48559-4 0  9992","COUNTRY_CODE":"US","MEAN_ANOMALY":"288.0241","ECCENTRICITY":"0.00015870","EPOCH":"2022-05-18T21:05:34.342080","RA_OF_ASC_NODE":"325.2232","ARG_OF_PERICENTER":"72.0921","TLE_LINE2":"2 47736  53.0535 325.2232 0001587  72.0921 288.0241 15.06399945 67617","MEAN_MOTION_DDOT":"0.0000000000000","OBJECT_NAME":"STARLINK-2147","DECAY_DATE":null},{"EPOCH":"2022-05-19T00:35:25.495296","ECCENTRICITY":"0.00023410","ARG_OF_PERICENTER":"57.2426","RA_OF_ASC_NODE":"245.5142","TLE_LINE2":"2 47737  53.0546 245.5142 0002341  57.2426 302.8799 15.30372720 68745","MEAN_MOTION_DDOT":"0.0000000000000","DECAY_DATE":null,"OBJECT_NAME":"STARLINK-2148","INCLINATION":"53.0546","CLASSIFICATION_TYPE":"U","OBJECT_ID":"2021-017R","BSTAR":"0.00025558000000","EPHEMERIS_TYPE":"0","MEAN_ANOMALY":"302.8799","COUNTRY_CODE":"US","PERIOD":"94.095","TLE_LINE1":"1 47737U 21017R   22139.02460064  .00007258  00000-0  25558-3 0  9998","ELEMENT_SET_NO":"999","MEAN_MOTION":"15.30372720","OBJECT_TYPE":"PAYLOAD","SITE":"AFETR","GP_ID":"203913790","MEAN_MOTION_DOT":"0.00007258","PERIAPSIS":"473.097","APOAPSIS":"476.306","LAUNCH_DATE":"2021-03-04","REF_FRAME":"TEME","SEMIMAJOR_AXIS":"6852.836","CENTER_NAME":"EARTH","MEAN_ELEMENT_THEORY":"SGP4","FILE":"3452597","REV_AT_EPOCH":"6874","NORAD_CAT_ID":"47737","TIME_SYSTEM":"UTC","RCS_SIZE":"LARGE"},{"CENTER_NAME":"EARTH","FILE":"3452605","MEAN_ELEMENT_THEORY":"SGP4","REV_AT_EPOCH":"6762","RCS_SIZE":"LARGE","TIME_SYSTEM":"UTC","NORAD_CAT_ID":"47738","MEAN_MOTION":"15.06394059","ELEMENT_SET_NO":"999","SITE":"AFETR","OBJECT_TYPE":"PAYLOAD","PERIAPSIS":"546.271","MEAN_MOTION_DOT":"0.00001468","GP_ID":"203914327","SEMIMAJOR_AXIS":"6925.367","REF_FRAME":"TEME","LAUNCH_DATE":"2021-03-04","APOAPSIS":"548.193","OBJECT_ID":"2021-017S","CLASSIFICATION_TYPE":"U","INCLINATION":"53.0541","BSTAR":"0.00011745000000","EPHEMERIS_TYPE":"0","TLE_LINE1":"1 47738U 21017S   22138.95996486  .00001468  00000-0  11745-3 0  9992","PERIOD":"95.593","COUNTRY_CODE":"US","MEAN_ANOMALY":"296.4047","ECCENTRICITY":"0.00013880","EPOCH":"2022-05-18T23:02:20.963904","RA_OF_ASC_NODE":"324.8553","ARG_OF_PERICENTER":"63.7085","MEAN_MOTION_DDOT":"0.0000000000000","TLE_LINE2":"2 47738  53.0541 324.8553 0001388  63.7085 296.4047 15.06394059 67623","OBJECT_NAME":"STARLINK-2149","DECAY_DATE":null},{"FILE":"3452623","MEAN_ELEMENT_THEORY":"SGP4","CENTER_NAME":"EARTH","TIME_SYSTEM":"UTC","RCS_SIZE":"LARGE","NORAD_CAT_ID":"47739","REV_AT_EPOCH":"6729","SITE":"AFETR","OBJECT_TYPE":"PAYLOAD","MEAN_MOTION":"15.06401081","ELEMENT_SET_NO":"999","REF_FRAME":"TEME","SEMIMAJOR_AXIS":"6925.345","LAUNCH_DATE":"2021-03-04","APOAPSIS":"548.297","GP_ID":"203914611","MEAN_MOTION_DOT":"0.00002149","PERIAPSIS":"546.124","BSTAR":"0.00016313000000","CLASSIFICATION_TYPE":"U","OBJECT_ID":"2021-017T","INCLINATION":"53.0554","COUNTRY_CODE":"US","TLE_LINE1":"1 47739U 21017T   22139.07376111  .00002149  00000-0  16313-3 0  9997","PERIOD":"95.592","MEAN_ANOMALY":"287.7820","EPHEMERIS_TYPE":"0","RA_OF_ASC_NODE":"349.3448","ARG_OF_PERICENTER":"72.3341","ECCENTRICITY":"0.00015690","EPOCH":"2022-05-19T01:46:12.959904","DECAY_DATE":null,"OBJECT_NAME":"STARLINK-2150","TLE_LINE2":"2 47739  53.0554 349.3448 0001569  72.3341 287.7820 15.06401081 67294","MEAN_MOTION_DDOT":"0.0000000000000"},{"ARG_OF_PERICENTER":"69.2286","RA_OF_ASC_NODE":"335.0200","EPOCH":"2022-05-18T22:07:56.432352","ECCENTRICITY":"0.00014080","DECAY_DATE":null,"OBJECT_NAME":"STARLINK-2152","TLE_LINE2":"2 47740  53.0559 335.0200 0001408  69.2286 290.8854 15.06396406 67470","MEAN_MOTION_DDOT":"0.0000000000000","BSTAR":"-0.00001353200000","INCLINATION":"53.0559","CLASSIFICATION_TYPE":"U","OBJECT_ID":"2021-017U","MEAN_ANOMALY":"290.8854","COUNTRY_CODE":"US","TLE_LINE1":"1 47740U 21017U   22138.92218093 -.00000483  00000-0 -13532-4 0  9998","PERIOD":"95.592","EPHEMERIS_TYPE":"0","OBJECT_TYPE":"PAYLOAD","SITE":"AFETR","ELEMENT_SET_NO":"999","MEAN_MOTION":"15.06396406","APOAPSIS":"548.200","LAUNCH_DATE":"2021-03-04","REF_FRAME":"TEME","SEMIMAJOR_AXIS":"6925.360","GP_ID":"203914322","MEAN_MOTION_DOT":"-0.00000483","PERIAPSIS":"546.249","MEAN_ELEMENT_THEORY":"SGP4","FILE":"3452605","CENTER_NAME":"EARTH","NORAD_CAT_ID":"47740","TIME_SYSTEM":"UTC","RCS_SIZE":"LARGE","REV_AT_EPOCH":"6747"},{"OBJECT_TYPE":"PAYLOAD","SITE":"AFETR","ELEMENT_SET_NO":"999","MEAN_MOTION":"15.06402584","LAUNCH_DATE":"2021-03-04","APOAPSIS":"548.144","REF_FRAME":"TEME","SEMIMAJOR_AXIS":"6925.341","GP_ID":"203904888","MEAN_MOTION_DOT":"0.00001338","PERIAPSIS":"546.267","MEAN_ELEMENT_THEORY":"SGP4","FILE":"3452356","CENTER_NAME":"EARTH","NORAD_CAT_ID":"47741","TIME_SYSTEM":"UTC","RCS_SIZE":"LARGE","REV_AT_EPOCH":"6809","ARG_OF_PERICENTER":"76.7912","RA_OF_ASC_NODE":"335.5531","EPOCH":"2022-05-18T19:18:05.359680","ECCENTRICITY":"0.00013550","DECAY_DATE":null,"OBJECT_NAME":"STARLINK-2154","TLE_LINE2":"2 47741  53.0554 335.5531 0001355  76.7912 283.3228 15.06402584 68094","MEAN_MOTION_DDOT":"0.0000000000000","BSTAR":"0.00010868000000","INCLINATION":"53.0554","CLASSIFICATION_TYPE":"U","OBJECT_ID":"2021-017V","MEAN_ANOMALY":"283.3228","COUNTRY_CODE":"US","PERIOD":"95.592","TLE_LINE1":"1 47741U 21017V   22138.80422870  .00001338  00000-0  10868-3 0  9992","EPHEMERIS_TYPE":"0"},{"OBJECT_NAME":"STARLINK-2156","DECAY_DATE":null,"TLE_LINE2":"2 47742  53.0548 326.9891 0001435  72.1085 288.0060 15.06396904 67555","MEAN_MOTION_DDOT":"0.0000000000000","ARG_OF_PERICENTER":"72.1085","RA_OF_ASC_NODE":"326.9891","EPOCH":"2022-05-18T11:37:38.633952","ECCENTRICITY":"0.00014350","MEAN_ANOMALY":"288.0060","PERIOD":"95.592","TLE_LINE1":"1 47742U 21017W   22138.48447493  .00000790  00000-0  71944-4 0  9999","COUNTRY_CODE":"US","EPHEMERIS_TYPE":"0","BSTAR":"0.00007194400000","INCLINATION":"53.0548","OBJECT_ID":"2021-017W","CLASSIFICATION_TYPE":"U","LAUNCH_DATE":"2021-03-04","APOAPSIS":"548.217","SEMIMAJOR_AXIS":"6925.358","REF_FRAME":"TEME","PERIAPSIS":"546.229","MEAN_MOTION_DOT":"0.00000790","GP_ID":"203841359","OBJECT_TYPE":"PAYLOAD","SITE":"AFETR","ELEMENT_SET_NO":"999","MEAN_MOTION":"15.06396904","NORAD_CAT_ID":"47742","RCS_SIZE":"LARGE","TIME_SYSTEM":"UTC","REV_AT_EPOCH":"6755","MEAN_ELEMENT_THEORY":"SGP4","FILE":"3451525","CENTER_NAME":"EARTH"},{"TLE_LINE2":"2 47743  53.0540 325.6843 0001725  69.7198 290.3976 15.06410434 68255","MEAN_MOTION_DDOT":"0.0000000000000","DECAY_DATE":null,"OBJECT_NAME":"STARLINK-2157","EPOCH":"2022-05-18T18:36:57.309984","ECCENTRICITY":"0.00017250","ARG_OF_PERICENTER":"69.7198","RA_OF_ASC_NODE":"325.6843","EPHEMERIS_TYPE":"0","MEAN_ANOMALY":"290.3976","COUNTRY_CODE":"US","PERIOD":"95.591","TLE_LINE1":"1 47743U 21017X   22138.77566331  .00006499  00000-0  45464-3 0  9994","INCLINATION":"53.0540","CLASSIFICATION_TYPE":"U","OBJECT_ID":"2021-017X","BSTAR":"0.00045464000000","GP_ID":"203905391","MEAN_MOTION_DOT":"0.00006499","PERIAPSIS":"545.987","APOAPSIS":"548.376","LAUNCH_DATE":"2021-03-04","REF_FRAME":"TEME","SEMIMAJOR_AXIS":"6925.317","ELEMENT_SET_NO":"999","MEAN_MOTION":"15.06410434","OBJECT_TYPE":"PAYLOAD","SITE":"AFETR","REV_AT_EPOCH":"6825","NORAD_CAT_ID":"47743","TIME_SYSTEM":"UTC","RCS_SIZE":"LARGE","CENTER_NAME":"EARTH","MEAN_ELEMENT_THEORY":"SGP4","FILE":"3452356"},{"RA_OF_ASC_NODE":"325.4899","ARG_OF_PERICENTER":"71.9652","ECCENTRICITY":"0.00014230","EPOCH":"2022-05-18T19:40:38.706816","DECAY_DATE":null,"OBJECT_NAME":"STARLINK-2158","TLE_LINE2":"2 47744  53.0546 325.4899 0001423  71.9652 288.1492 15.06396963 68287","MEAN_MOTION_DDOT":"0.0000000000000","BSTAR":"0.00015224000000","CLASSIFICATION_TYPE":"U","OBJECT_ID":"2021-017Y","INCLINATION":"53.0546","COUNTRY_CODE":"US","PERIOD":"95.592","TLE_LINE1":"1 47744U 21017Y   22138.81989244  .00001987  00000-0  15224-3 0  9990","MEAN_ANOMALY":"288.1492","EPHEMERIS_TYPE":"0","SITE":"AFETR","OBJECT_TYPE":"PAYLOAD","MEAN_MOTION":"15.06396963","ELEMENT_SET_NO":"999","REF_FRAME":"TEME","SEMIMAJOR_AXIS":"6925.358","LAUNCH_DATE":"2021-03-04","APOAPSIS":"548.208","GP_ID":"203904140","PERIAPSIS":"546.237","MEAN_MOTION_DOT":"0.00001987","FILE":"3452356","MEAN_ELEMENT_THEORY":"SGP4","CENTER_NAME":"EARTH","TIME_SYSTEM":"UTC","RCS_SIZE":"LARGE","NORAD_CAT_ID":"47744","REV_AT_EPOCH":"6828"}];
